{
  "type": "FeatureCollection",
  "features": [
    {
      "type": "Feature",
      "properties": {
        "norad_id": 44333,
        "name": "AT&T T-16",
        "group": "intelsat",
        "lat": 0.01056060160726823,
        "lon": 52.682049202159526,
        "alt_km": 35787.484713977596,
        "timestamp": "2025-12-10T04:57:29.274054+00:00",
        "meta_object_name": "AT&T T-16",
        "meta_object_id": "2019-034A",
        "meta_epoch": "2025-12-09T13:14:11.020416",
        "meta_mean_motion": 1.00268586,
        "meta_eccentricity": 5.4e-05,
        "meta_inclination": 0.0238,
        "meta_ra_of_asc_node": 62.7711,
        "meta_arg_of_pericenter": 92.6025,
        "meta_mean_anomaly": 20.8533,
        "meta_ephemeris_type": 0,
        "meta_classification_type": "U",
        "meta_norad_cat_id": 44333,
        "meta_element_set_no": 999,
        "meta_rev_at_epoch": 2373,
        "meta_bstar": 0,
        "meta_mean_motion_dot": -1.13e-06,
        "meta_mean_motion_ddot": 0,
        "tle_line1": "1 44333U 19034A   25343.55151644 -.00000113  00000+0  00000+0 0  9996",
        "tle_line2": "2 44333   0.0238  62.7711 0000540  92.6025  20.8533  1.00268586 23731"
      },
      "geometry": {
        "type": "Point",
        "coordinates": [
          52.682049202159526,
          0.01056060160726823
        ]
      }
    },
    {
      "type": "Feature",
      "properties": {
        "norad_id": 44476,
        "name": "INTELSAT 39 (IS-39)",
        "group": "intelsat",
        "lat": -0.03127448770068803,
        "lon": -144.48911921149235,
        "alt_km": 35784.59873668439,
        "timestamp": "2025-12-10T04:57:29.274066+00:00",
        "meta_object_name": "INTELSAT 39 (IS-39)",
        "meta_object_id": "2019-049B",
        "meta_epoch": "2025-12-09T13:52:05.984256",
        "meta_mean_motion": 1.00270059,
        "meta_eccentricity": 0.0001014,
        "meta_inclination": 0.0164,
        "meta_ra_of_asc_node": 318.5209,
        "meta_arg_of_pericenter": 194.0541,
        "meta_mean_anomaly": 195.9656,
        "meta_ephemeris_type": 0,
        "meta_classification_type": "U",
        "meta_norad_cat_id": 44476,
        "meta_element_set_no": 999,
        "meta_rev_at_epoch": 2322,
        "meta_bstar": 0,
        "meta_mean_motion_dot": 3.6e-07,
        "meta_mean_motion_ddot": 0,
        "tle_line1": "1 44476U 19049B   25343.57784704  .00000036  00000+0  00000+0 0  9994",
        "tle_line2": "2 44476   0.0164 318.5209 0001014 194.0541 195.9656  1.00270059 23220"
      },
      "geometry": {
        "type": "Point",
        "coordinates": [
          -144.48911921149235,
          -0.03127448770068803
        ]
      }
    },
    {
      "type": "Feature",
      "properties": {
        "norad_id": 46114,
        "name": "GALAXY 30 (G-30)",
        "group": "intelsat",
        "lat": 0.019300238470840766,
        "lon": 28.571414176451643,
        "alt_km": 35792.74973576257,
        "timestamp": "2025-12-10T04:57:29.274077+00:00",
        "meta_object_name": "GALAXY 30 (G-30)",
        "meta_object_id": "2020-056C",
        "meta_epoch": "2025-12-09T09:54:15.136416",
        "meta_mean_motion": 1.00271447,
        "meta_eccentricity": 0.0002386,
        "meta_inclination": 0.0167,
        "meta_ra_of_asc_node": 3.1394,
        "meta_arg_of_pericenter": 254.3856,
        "meta_mean_anomaly": 204.4379,
        "meta_ephemeris_type": 0,
        "meta_classification_type": "U",
        "meta_norad_cat_id": 46114,
        "meta_element_set_no": 999,
        "meta_rev_at_epoch": 1939,
        "meta_bstar": 0,
        "meta_mean_motion_dot": 3.9e-07,
        "meta_mean_motion_ddot": 0,
        "tle_line1": "1 46114U 20056C   25343.41267519  .00000039  00000+0  00000+0 0  9991",
        "tle_line2": "2 46114   0.0167   3.1394 0002386 254.3856 204.4379  1.00271447 19391"
      },
      "geometry": {
        "type": "Point",
        "coordinates": [
          28.571414176451643,
          0.019300238470840766
        ]
      }
    },
    {
      "type": "Feature",
      "properties": {
        "norad_id": 54026,
        "name": "GALAXY 33 (G-33)",
        "group": "intelsat",
        "lat": 0.024290636944680265,
        "lon": 20.579640540794568,
        "alt_km": 35792.02263868823,
        "timestamp": "2025-12-10T04:57:29.274089+00:00",
        "meta_object_name": "GALAXY 33 (G-33)",
        "meta_object_id": "2022-128A",
        "meta_epoch": "2025-12-09T14:39:08.977248",
        "meta_mean_motion": 1.00272312,
        "meta_eccentricity": 0.0002224,
        "meta_inclination": 0.013,
        "meta_ra_of_asc_node": 307.6634,
        "meta_arg_of_pericenter": 302.0714,
        "meta_mean_anomaly": 275.6551,
        "meta_ephemeris_type": 0,
        "meta_classification_type": "U",
        "meta_norad_cat_id": 54026,
        "meta_element_set_no": 999,
        "meta_rev_at_epoch": 1184,
        "meta_bstar": 0,
        "meta_mean_motion_dot": 8.1e-07,
        "meta_mean_motion_ddot": 0,
        "tle_line1": "1 54026U 22128A   25343.61052057  .00000081  00000+0  00000+0 0  9992",
        "tle_line2": "2 54026   0.0130 307.6634 0002224 302.0714 275.6551  1.00272312 11842"
      },
      "geometry": {
        "type": "Point",
        "coordinates": [
          20.579640540794568,
          0.024290636944680265
        ]
      }
    },
    {
      "type": "Feature",
      "properties": {
        "norad_id": 54027,
        "name": "GALAXY 34 (G-34)",
        "group": "intelsat",
        "lat": 0.035141224016306004,
        "lon": 24.631920694674246,
        "alt_km": 35790.41564226315,
        "timestamp": "2025-12-10T04:57:29.274101+00:00",
        "meta_object_name": "GALAXY 34 (G-34)",
        "meta_object_id": "2022-128B",
        "meta_epoch": "2025-12-09T14:45:08.313120",
        "meta_mean_motion": 1.00270553,
        "meta_eccentricity": 0.0001281,
        "meta_inclination": 0.025,
        "meta_ra_of_asc_node": 324.9472,
        "meta_arg_of_pericenter": 281.4096,
        "meta_mean_anomaly": 284.6001,
        "meta_ephemeris_type": 0,
        "meta_classification_type": "U",
        "meta_norad_cat_id": 54027,
        "meta_element_set_no": 999,
        "meta_rev_at_epoch": 1201,
        "meta_bstar": 0,
        "meta_mean_motion_dot": 0,
        "meta_mean_motion_ddot": 0,
        "tle_line1": "1 54027U 22128B   25343.61467955  .00000000  00000+0  00000+0 0  9991",
        "tle_line2": "2 54027   0.0250 324.9472 0001281 281.4096 284.6001  1.00270553 12018"
      },
      "geometry": {
        "type": "Point",
        "coordinates": [
          24.631920694674246,
          0.035141224016306004
        ]
      }
    },
    {
      "type": "Feature",
      "properties": {
        "norad_id": 54243,
        "name": "GALAXY 31 (G-31)",
        "group": "intelsat",
        "lat": 0.01901273275338678,
        "lon": 32.57858222171634,
        "alt_km": 35790.28423517595,
        "timestamp": "2025-12-10T04:57:29.274113+00:00",
        "meta_object_name": "GALAXY 31 (G-31)",
        "meta_object_id": "2022-153A",
        "meta_epoch": "2025-12-09T14:42:38.643264",
        "meta_mean_motion": 1.00271999,
        "meta_eccentricity": 0.0001898,
        "meta_inclination": 0.0186,
        "meta_ra_of_asc_node": 256.7683,
        "meta_arg_of_pericenter": 13.5547,
        "meta_mean_anomaly": 267.9435,
        "meta_ephemeris_type": 0,
        "meta_classification_type": "U",
        "meta_norad_cat_id": 54243,
        "meta_element_set_no": 999,
        "meta_rev_at_epoch": 523,
        "meta_bstar": 0,
        "meta_mean_motion_dot": 1.6e-07,
        "meta_mean_motion_ddot": 0,
        "tle_line1": "1 54243U 22153A   25343.61294726  .00000016  00000+0  00000+0 0  9990",
        "tle_line2": "2 54243   0.0186 256.7683 0001898  13.5547 267.9435  1.00271999  5237"
      },
      "geometry": {
        "type": "Point",
        "coordinates": [
          32.57858222171634,
          0.01901273275338678
        ]
      }
    },
    {
      "type": "Feature",
      "properties": {
        "norad_id": 54244,
        "name": "GALAXY 32 (G-32)",
        "group": "intelsat",
        "lat": 0.027516637878154063,
        "lon": 62.57721253446671,
        "alt_km": 35791.07954412057,
        "timestamp": "2025-12-10T04:57:29.274124+00:00",
        "meta_object_name": "GALAXY 32 (G-32)",
        "meta_object_id": "2022-153B",
        "meta_epoch": "2025-12-09T12:24:44.332992",
        "meta_mean_motion": 1.00270521,
        "meta_eccentricity": 0.00027242,
        "meta_inclination": 0.0086,
        "meta_ra_of_asc_node": 338.62,
        "meta_arg_of_pericenter": 330.4778,
        "meta_mean_anomaly": 224.5904,
        "meta_ephemeris_type": 0,
        "meta_classification_type": "U",
        "meta_norad_cat_id": 54244,
        "meta_element_set_no": 999,
        "meta_rev_at_epoch": 1124,
        "meta_bstar": 0,
        "meta_mean_motion_dot": -1.72e-06,
        "meta_mean_motion_ddot": 0,
        "tle_line1": "1 54244U 22153B   25343.51717978 -.00000172  00000+0  00000+0 0  9993",
        "tle_line2": "2 54244   0.0086 338.6200 0002724 330.4778 224.5904  1.00270521 11246"
      },
      "geometry": {
        "type": "Point",
        "coordinates": [
          62.57721253446671,
          0.027516637878154063
        ]
      }
    }
  ]
}